MAKERSAT 0              
1 43016U 17073D   26052.12691660  .00023319  00000+0  71959-3 0  9999
2 43016  97.4801 294.0568 0118166 325.1881  34.1667 15.26897080448728
SIRION PATHFINDER-2     
1 43759U 18099B   26052.58512126  .00004453  00000+0  25346-3 0  9998
2 43759  97.4422 104.3908 0008401 350.6495   9.4578 15.13319451395135
CORVUS BC4              
1 43767U 18099K   26052.10901639  .00004205  00000+0  25237-3 0  9990
2 43767  97.4240  98.4723 0009633  50.3919 309.8161 15.11417215394862
SPACEBEE-7              
1 43816U 18099BL  26052.21801376  .00497712  94345-4  18035-2 0  9990
2 43816  97.4508 137.5625 0006632 261.4941  98.5579 15.88514916396582
M2 PATHFINDER           
1 45727U 20037E   26052.51349366  .00002640  00000+0  19513-3 0  9992
2 45727  97.8165 242.4604 0011756 175.7859 184.3467 15.04062994308102
NETSAT-4                
1 46504U 20068U   26052.41151581  .00019720  00000+0  50141-3 0  9998
2 46504  97.8642  51.7046 0007087  34.6722 325.4984 15.39635972297931
NETSAT-3                
1 46505U 20068V   26052.51780496  .00018476  00000+0  49114-3 0  9998
2 46505  97.8673  50.2048 0007427  48.2448 311.9429 15.38281558297879
NETSAT-1                
1 46506U 20068W   26052.48375103  .00015499  00000+0  51234-3 0  9998
2 46506  97.8736  45.7717 0007636  63.1101 297.0918 15.31438037297579
NETSAT-2                
1 46507U 20068X   26052.50653781  .00020504  00000+0  50374-3 0  9990
2 46507  97.8652  51.3786 0006683  62.2770 297.9152 15.40678821297890
WILDTRACKCUBE-SIMBA     
1 47941U 21022K   26052.54623159  .00539845  12525-3  12279-2 0  9997
2 47941  97.3912 333.2276 0008717 105.1586 255.0655 15.97425576273251
GREENCUBE (IO-117)      
1 53109U 22080E   26051.14570130 -.00000003  00000+0  00000+0 0  9997
2 53109  70.1645 338.9501 0009075 315.3485  44.6443  6.42583107 84544
SITRO-AIS 5 (KATYS)     
1 57176U 23091L   26052.62322705  .00011243  00000+0  43147-3 0  9995
2 57176  97.5211 115.5804 0013070 146.1258 214.0818 15.26567160146694
SITRO-AIS 6 (CHIRKIN)   
1 57192U 23091AC  26052.63029751  .00005820  00000+0  24176-3 0  9994
2 57192  97.5214 115.2450 0013600 145.5183 214.6939 15.24130646146679
SITRO-AIS 8 (ANOKHIN)   
1 57193U 23091AD  26052.62887418  .00013083  00000+0  46912-3 0  9998
2 57193  97.5203 116.7489 0012318 143.5272 216.6809 15.28777047146773
SITRO-AIS 7 (FARTUSHNIY)
1 57194U 23091AE  26052.61232993  .00005666  00000+0  23705-3 0  9993
2 57194  97.5214 115.1041 0013364 146.6708 213.5373 15.23903135146667
SITRO-AIS 10 (BURDAEV)  
1 57199U 23091AK  26052.51380028  .00020198  00000+0  61530-3 0  9995
2 57199  97.5216 120.6147 0008570 123.8821 236.3238 15.33978915147009
SITRO-AIS 9 (SHCHUKIN)  
1 57201U 23091AM  26052.63866981  .00017843  00000+0  55011-3 0  9999
2 57201  97.5216 120.5506 0008698 123.5811 236.6263 15.33622561147013
SITRO-AIS 12 (SMIRENNIY)
1 57204U 23091AQ  26052.45384166  .00019579  00000+0  59872-3 0  9999
2 57204  97.5226 120.7629 0008481 119.2365 240.9727 15.33864117147008
SITRO-AIS 11 (SHEFFER)  
1 57208U 23091AU  26052.62620337  .00018009  00000+0  54537-3 0  9995
2 57208  97.5224 121.1206 0008376 118.4427 241.7660 15.34192232147041
SITRO-AIS 25            
1 59066U 24039R   26052.56290226  .00004071  00000+0  32366-3 0  9995
2 59066  95.3946 155.6767 0147567  12.9396 347.5550 14.92477806107477
SITRO-AIS 26            
1 59067U 24039S   26052.54929061  .00003876  00000+0  30963-3 0  9993
2 59067  95.3945 155.5874 0147854  13.4071 347.1016 14.92291706107465
SITRO-AIS 27            
1 59068U 24039T   26052.55089220  .00004033  00000+0  31949-3 0  9990
2 59068  95.3946 155.8089 0146922  12.2711 348.2030 14.92683968107486
SITRO-AIS 28            
1 59071U 24039U   26052.59803126  .00003260  00000+0  25863-3 0  9996
2 59071  95.3946 155.8823 0146834  11.9452 348.5193 14.92717823107498
GRBBETA                 
1 60237U 24128C   26052.56935087  .00003855  00000+0  27288-3 0  9993
2 60237  61.9886 261.6141 0052909 110.9926 249.6839 15.05570328 88858
OOV-CUBE (TUBSAT-30)    
1 60240U 24128F   26052.05474393  .00002339  00000+0  18729-3 0  9995
2 60240  61.9938 270.3407 0055822 108.9681 251.7470 15.02113433 88665
ROBUSTA-3A (MEDITERRAN*)
1 60243U 24128J   26052.10802175  .00007002  00000+0  43128-3 0  9990
2 60243  61.9850 258.1625 0053298 105.3164 255.3830 15.09710831 88885
LASARSAT                
1 62391U 24247Q   26052.39936255  .00033575  00000+0  85590-3 0  9999
2 62391  44.9754 189.3557 0003425 290.1116  69.9403 15.39005080 65438
CROCUBE                 
1 62394U 24247T   26052.44065304  .00037679  00000+0  92687-3 0  9990
2 62394  44.9726 187.8976 0003551 276.2534  83.7949 15.40041481 65455
